OBJECT_NAME,OBJECT_ID,EPOCH,MEAN_MOTION,ECCENTRICITY,INCLINATION,RA_OF_ASC_NODE,ARG_OF_PERICENTER,MEAN_ANOMALY,EPHEMERIS_TYPE,CLASSIFICATION_TYPE,NORAD_CAT_ID,ELEMENT_SET_NO,REV_AT_EPOCH,BSTAR,MEAN_MOTION_DOT,MEAN_MOTION_DDOT
STARLINK-5034,2022-119C,2024-02-07T14:28:12.989568,15.08859541,.0001442,53.2166,140.9650,93.3748,266.7409,0,U,53888,999,7636,.83043E-4,.1035E-4,0
STARLINK-5031,2022-119D,2024-02-07T14:22:56.232480,15.08841934,.0001492,53.2171,140.9437,78.7984,281.3176,0,U,53889,999,7678,.74773E-4,.902E-5,0
STARLINK-5050,2022-119E,2024-02-07T13:26:33.845280,15.08843469,.000163,53.2180,105.7507,97.2044,262.9134,0,U,53890,999,7727,.15882E-4,-.35E-6,0
STARLINK-5041,2022-119F,2024-02-07T14:12:19.296000,15.08841531,.0001356,53.2164,140.8958,88.6498,271.4649,0,U,53891,999,7636,.25931E-4,.125E-5,0
STARLINK-5046,2022-119G,2024-02-07T13:45:47.118528,15.08844498,.0001468,53.2178,140.7840,90.5580,269.5580,0,U,53892,999,7678,.93273E-4,.1197E-4,0
STARLINK-5052,2022-119H,2024-02-07T13:03:20.833632,15.08841870,.0001493,53.2181,140.6054,77.7528,282.3632,0,U,53893,999,7678,.55243E-4,.591E-5,0
STARLINK-5043,2022-119J,2024-02-07T14:07:00.973344,15.08837729,.0001405,53.2167,140.8762,91.1834,268.9319,0,U,53894,999,7678,.85304E-4,.107E-4,0
STARLINK-5032,2022-119K,2024-02-07T12:15:43.389504,15.08837976,.000154,53.2182,141.1045,96.3088,263.8079,0,U,53895,999,7677,-.52138E-4,-.1118E-4,0
STARLINK-5037,2022-119L,2024-02-07T13:40:29.460288,15.08837211,.0001337,53.2163,140.7610,85.7732,274.3413,0,U,53896,999,7678,.11216E-4,-.109E-5,0
STARLINK-5035,2022-119M,2024-02-07T14:01:42.761280,15.08836353,.0001447,53.2177,140.8516,89.8632,270.2526,0,U,53897,999,7678,.94757E-4,.122E-4,0
STARLINK-5044,2022-119N,2024-02-07T11:49:10.902720,15.08839129,.0001705,53.2172,140.9892,108.5017,251.6161,0,U,53898,999,7677,.57003E-4,.619E-5,0
STARLINK-5042,2022-119P,2024-02-07T13:29:52.052928,15.08842846,.0001382,53.2176,140.7136,100.7457,259.3691,0,U,53899,999,7678,.27085E-4,.143E-5,0
STARLINK-5045,2022-119Q,2024-02-07T13:13:57.345024,15.08847931,.0001204,53.2168,140.6450,79.5356,280.5772,0,U,53900,999,7678,-.90343E-5,-.432E-5,0
STARLINK-5024,2022-119R,2024-02-07T11:59:47.618016,15.08840861,.000159,53.2179,141.0303,102.1865,257.9305,0,U,53901,999,7677,.24237E-4,.98E-6,0
STARLINK-5021,2022-119S,2024-02-07T10:04:31.686816,15.08847233,.0001732,53.2173,91.3492,94.9841,265.1349,0,U,53902,999,7746,-.71785E-4,-.1431E-4,0
STARLINK-5022,2022-119T,2024-02-07T13:36:33.604704,15.08837808,.0001336,53.2177,140.7373,88.6411,271.4734,0,U,53903,999,7678,.59401E-4,.658E-5,0
STARLINK-4787,2022-119U,2024-02-07T13:08:39.026688,15.08832238,.0001587,53.2182,140.6231,95.6173,264.5000,0,U,53904,999,7678,.29565E-3,.4419E-4,0
STARLINK-5003,2022-119V,2024-02-07T12:54:10.764576,15.08842222,.0001339,53.2167,131.2881,88.6520,271.4626,0,U,53905,999,7691,.59541E-4,.66E-5,0
STARLINK-5054,2022-119W,2024-02-07T13:22:06.340512,15.08826729,.0001408,53.2178,131.4033,101.5051,258.6100,0,U,53906,999,7691,-.49014E-4,-.1068E-4,0
STARLINK-5063,2022-119X,2024-02-07T13:47:47.143680,15.07201273,.0001431,53.2174,140.7868,96.7298,263.3857,0,U,53907,999,7678,.63118E-4,.677E-5,0
STARLINK-5057,2022-119Y,2024-02-07T12:43:34.965120,15.08830459,.0001406,53.2150,131.2402,76.9804,283.1345,0,U,53908,999,7691,.1169E-2,.18361E-3,0
STARLINK-4796,2022-119Z,2024-02-07T12:59:29.378400,15.08836452,.0001278,53.2170,131.3107,93.4948,266.6190,0,U,53909,999,7691,-.11493E-4,-.471E-5,0
STARLINK-5056,2022-119AA,2024-02-07T12:32:57.356448,15.08848018,.0001385,53.2161,131.1951,96.5645,263.5505,0,U,53910,999,7691,.29611E-4,.183E-5,0
STARLINK-5048,2022-119AB,2024-02-07T12:48:52.653600,15.08850265,.000137,53.2167,131.2644,85.8066,274.3083,0,U,53911,999,7691,.26351E-3,.3909E-4,0
STARLINK-5059,2022-119AC,2024-02-07T13:09:58.759200,15.08840373,.0001803,53.2184,130.6637,116.0770,244.0408,0,U,53912,999,7650,.72048E-4,.859E-5,0
STARLINK-5053,2022-119AD,2024-02-07T12:22:20.998848,15.08840968,.000145,53.2170,131.1508,83.1530,276.9627,0,U,53913,999,7691,.10159E-4,-.126E-5,0
STARLINK-5040,2022-119AE,2024-02-07T13:52:25.306752,15.08845901,.0001423,53.2173,130.8365,86.0256,274.0899,0,U,53914,999,7650,.79688E-4,.981E-5,0
STARLINK-5017,2022-119AF,2024-02-07T12:38:15.822528,15.08844347,.0001462,53.2161,131.2161,94.3934,265.7225,0,U,53915,999,7691,.12286E-5,-.268E-5,0
STARLINK-5051,2022-119AG,2024-02-07T11:26:38.613120,15.08851806,.0001718,53.2170,110.9983,90.5711,269.5478,0,U,53916,999,7720,.43194E-4,.4E-5,0
STARLINK-5036,2022-119AH,2024-02-07T12:27:39.224736,15.08843947,.0001666,53.2178,131.1734,76.0053,284.1124,0,U,53917,999,7691,.25324E-4,.115E-5,0
STARLINK-5012,2022-119AJ,2024-02-07T12:11:44.384640,15.08840946,.0001271,53.2177,131.1068,98.3683,261.7453,0,U,53918,999,7691,.24909E-4,.109E-5,0
STARLINK-5023,2022-119AK,2024-02-07T13:41:49.293888,15.08839055,.000175,53.2188,130.7856,71.2689,288.8493,0,U,53919,999,7692,.40445E-4,.356E-5,0
STARLINK-5025,2022-119AL,2024-02-07T12:34:20.258976,15.08844732,.0001501,53.2163,131.1969,85.9819,274.1345,0,U,53920,999,7691,.65257E-4,.751E-5,0
STARLINK-5002,2022-119AN,2024-02-07T13:25:53.831712,15.08841766,.0001324,53.2172,130.7156,99.1522,260.9620,0,U,53922,999,7692,.47525E-4,.469E-5,0
STARLINK-5004,2022-119AP,2024-02-07T13:36:30.776832,15.08838550,.0002097,53.2181,130.7611,53.9472,306.1714,0,U,53923,999,7692,.45705E-4,.439E-5,0
STARLINK-5001,2022-119AQ,2024-02-07T12:09:44.947872,15.08841231,.0001334,53.2172,126.1109,83.9213,276.1931,0,U,53924,999,7698,.5863E-4,.645E-5,0
STARLINK-5011,2022-119AR,2024-02-07T13:04:40.076256,15.08847031,.000175,53.2180,130.6409,112.4136,247.7042,0,U,53925,999,7692,-.95161E-4,-.1803E-4,0
STARLINK-5014,2022-119AS,2024-02-07T13:29:13.389792,15.08838400,.0001451,53.2174,125.7439,87.7243,272.3916,0,U,53926,999,7700,.33997E-4,.253E-5,0
STARLINK-5008,2022-119AT,2024-02-07T12:20:21.366816,15.08854507,.0001352,53.2162,126.1667,86.0213,274.0934,0,U,53927,999,7698,-.19844E-4,-.604E-5,0
STARLINK-5009,2022-119AU,2024-02-07T12:07:45.282144,15.08842222,.0001294,53.2154,121.1089,90.5294,269.5846,0,U,53928,999,7705,.45633E-4,.438E-5,0
STARLINK-5018,2022-119AV,2024-02-07T13:20:35.965248,15.08820711,.0001293,53.2180,130.6976,84.5117,275.6023,0,U,53929,999,7692,-.11065E-3,-.2047E-4,0
STARLINK-5010,2022-119AW,2024-02-07T11:46:32.127168,15.08843127,.0001388,53.2162,121.0188,87.9487,272.1664,0,U,53930,999,7705,.16434E-4,-.26E-6,0
STARLINK-5015,2022-119AX,2024-02-07T11:33:56.045088,15.08845506,.0001465,53.2154,115.9818,89.2045,270.9115,0,U,53931,999,7712,.87817E-4,.111E-4,0
STARLINK-4772,2022-119AY,2024-02-07T22:04:37.360704,15.08837446,.0001309,53.2174,114.4405,92.5763,267.5379,0,U,53932,999,7719,.40389E-4,.355E-5,0
STARLINK-4782,2022-119AZ,2024-02-07T12:02:26.915424,15.08846499,.0001566,53.2168,121.0869,90.7154,269.4018,0,U,53933,999,7705,.37957E-5,-.228E-5,0
STARLINK-4775,2022-119BA,2024-02-07T21:59:18.903264,15.08834969,.0001633,53.2169,114.4156,96.5988,263.5190,0,U,53934,999,7720,.35566E-4,.278E-5,0
STARLINK-5000,2022-119BB,2024-02-07T21:34:06.361536,15.08845445,.0001421,53.2185,104.3202,89.5134,270.6021,0,U,53935,999,7732,-.96344E-4,-.1821E-4,0
STARLINK-4791,2022-119BC,2024-02-07T11:44:32.324064,15.08847037,.0001432,53.2164,116.0195,89.2890,270.8266,0,U,53936,999,7713,.11062E-3,.1473E-4,0
STARLINK-4765,2022-119BD,2024-02-07T21:41:24.184896,15.08834181,.0001416,53.2162,109.3611,91.5875,268.5280,0,U,53937,999,7725,-.48679E-4,-.1062E-4,0
YAOGAN-36 01A,2022-120A,2024-02-07T21:06:28.995264,15.22468543,.0004002,34.9956,280.7406,246.0501,113.9795,0,U,53943,999,7622,.67189E-3,.15933E-3,0
YAOGAN-36 01B,2022-120D,2024-02-07T22:03:01.146528,15.47935571,.0000803,34.9807,246.0174,69.8701,290.2107,0,U,53946,999,7654,.12524E-2,.67858E-3,0
YAOGAN-36 01C,2022-120E,2024-02-07T22:36:39.310560,15.22377021,.0011936,34.9951,280.3122,289.6760,70.2666,0,U,53947,999,7623,.84225E-3,.19974E-3,0
SHIYAN 16A,2022-121A,2024-02-07T20:41:01.752576,15.31457090,.0008382,97.4122,64.8534,327.4101,32.6622,0,U,53948,999,7596,.7965E-3,.24193E-3,0
SHIYAN 16B,2022-121B,2024-02-07T21:24:03.080448,15.33299651,.0006628,97.4054,64.4317,333.9873,26.1035,0,U,53949,999,7595,.10721E-2,.34557E-3,0
2022-121C,2022-121C,2024-02-07T21:03:55.963584,15.28283963,.0009812,97.4122,64.0696,337.2201,22.8602,0,U,53950,999,7590,.52552E-3,.14437E-3,0
SELFIESAT,2022-057BC,2024-02-07T20:55:14.516256,15.36192456,.0006847,97.5556,163.5670,240.6870,119.3690,0,U,53951,999,9467,.1381E-2,.4891E-3,0
SES-20,2022-123A,2024-02-07T15:07:57.003168,1.00269270,.000168,0.0188,176.2330,257.0617,187.8131,0,U,53960,999,491,0,-.94E-6,0
SES-21,2022-123B,2024-02-07T16:43:11.262432,1.00273285,.0001324,0.0173,28.7834,293.3248,294.9870,0,U,53961,999,492,0,.75E-6,0
STARLINK-4633,2022-125A,2024-02-07T06:49:51.089376,15.08842527,.0001749,53.2164,42.3545,84.3856,275.7335,0,U,53964,999,7437,.5373E-4,.567E-5,0
STARLINK-4578,2022-125B,2024-02-07T06:45:55.778976,15.08839741,.0001662,53.2166,42.3358,107.5236,252.5938,0,U,53965,999,7437,.76625E-4,.932E-5,0
STARLINK-4635,2022-125C,2024-02-07T17:46:57.015552,15.08836040,.000181,53.2166,40.2274,87.8299,272.2900,0,U,53966,999,7444,.31317E-4,.21E-5,0
STARLINK-4634,2022-125D,2024-02-07T17:41:38.182272,15.08848536,.0001777,53.2170,40.2056,78.0559,282.0632,0,U,53967,999,7444,.22853E-6,-.285E-5,0
STARLINK-4629,2022-125E,2024-02-07T17:25:43.330944,15.08844231,.0001757,53.2182,40.1379,83.6087,276.5105,0,U,53968,999,7444,.76496E-5,-.166E-5,0
STARLINK-4468,2022-125F,2024-02-07T17:36:19.663488,15.08843054,.0001769,53.2178,40.1822,88.2728,271.8466,0,U,53969,999,7444,.90417E-4,.1151E-4,0
STARLINK-4567,2022-125G,2024-02-07T09:42:42.536736,15.08850090,.0001681,53.2180,36.6994,102.0520,258.0661,0,U,53970,999,7447,.20717E-4,.42E-6,0
STARLINK-4639,2022-125H,2024-02-07T17:31:01.595712,15.08842855,.0001551,53.2174,40.1595,94.8590,265.2580,0,U,53971,999,7444,.54486E-4,.579E-5,0
STARLINK-5157,2022-125J,2024-02-07T09:19:37.007328,15.69704693,.0001453,53.2175,28.1105,97.1125,263.0058,0,U,53972,999,7458,.28884E-4,.2911E-4,0
